ONEWEB-0555             
1 56057U 23043M   26147.76408747 -.00000020  00000+0 -84994-4 0  9999
2 56057  87.9106 232.8258 0002541 109.1520 250.9886 13.16594484156270
ONEWEB-0557             
1 56058U 23043N   26147.77832116 -.00000222  00000+0 -61537-3 0  9993
2 56058  87.9109 232.8332 0003253  92.7574 267.3929 13.16593699156271
ONEWEB-0558             
1 56059U 23043P   26147.77897867  .00000016  00000+0  67548-5 0  9997
2 56059  87.9256 248.0390 0001803 108.9719 251.1610 13.21826080155544
ONEWEB-0559             
1 56060U 23043Q   26147.76719767  .00000048  00000+0  85435-4 0  9999
2 56060  87.9258 248.0357 0001751 100.3807 259.7524 13.21826251155556
ONEWEB-0566             
1 56061U 23043R   26147.76048015  .00000009  00000+0 -85657-5 0  9996
2 56061  87.9256 248.0356 0001648 102.0535 258.0783 13.21825641155535
ONEWEB-0568             
1 56062U 23043S   26147.79574213 -.00000080  00000+0 -24224-3 0  9995
2 56062  87.9103 232.8199 0002274 104.5714 255.5669 13.16593000156299
ONEWEB-0574             
1 56063U 23043T   26147.75374564  .00000010  00000+0 -81888-5 0  9992
2 56063  87.9267 248.0380 0002190  98.1542 261.9840 13.21826238155576
ONEWEB-0575             
1 56064U 23043U   26147.78940937 -.00000135  00000+0 -38741-3 0  9996
2 56064  87.9105 232.8177 0002474  97.7044 262.4368 13.16592717156286
ONEWEB-0576             
1 56065U 23043V   26147.77040090 -.00000208  00000+0 -57871-3 0  9993
2 56065  87.9110 232.8286 0002250  97.7710 262.3676 13.16593499156274
ONEWEB-0577             
1 56066U 23043W   26147.77673676 -.00000239  00000+0 -66003-3 0  9997
2 56066  87.9108 232.8249 0002742  89.8974 270.2471 13.16594455156309
ONEWEB-0578             
1 56067U 23043X   26147.74029867 -.00000065  00000+0 -19000-3 0  9994
2 56067  87.9256 248.0400 0002260 106.0501 254.0882 13.21825106155531
ONEWEB-0579             
1 56068U 23043Y   26147.80758348 -.00000076  00000+0 -21534-3 0  9992
2 56068  87.9262 248.0226 0001773  94.6457 265.4880 13.21824410155558
ONEWEB-0581             
1 56069U 23043Z   26147.78307895 -.00000018  00000+0 -80965-4 0  9997
2 56069  87.9107 232.8349 0002490  90.7241 269.4176 13.16595415156275
ONEWEB-0609             
1 56070U 23043AA  26147.79801347 -.00000094  00000+0 -28387-3 0  9994
2 56070  87.8991 263.2748 0001900 101.9992 258.1351 13.15547397153756
ONEWEB-0613             
1 56071U 23043AB  26147.79564197 -.00000084  00000+0 -25693-3 0  9990
2 56071  87.8992 263.2876 0001620  97.8802 262.2512 13.15548696153750
ONEWEB-0630             
1 56072U 23043AC  26147.79088412 -.00000045  00000+0 -15259-3 0  9996
2 56072  87.8994 263.2594 0001651  97.3692 262.7626 13.15549722153747
ONEWEB-0632             
1 56073U 23043AD  26147.78613084  .00000031  00000+0  47809-4 0  9995
2 56073  87.8993 263.2786 0002023  96.1366 263.9995 13.15547281153749
ONEWEB-0633             
1 56074U 23043AE  26147.85584249  .00000041  00000+0  75115-4 0  9996
2 56074  87.9002 263.2385 0001489 103.1250 257.0046 13.15548754153739
ONEWEB-0634             
1 56075U 23043AF  26147.84158861  .00000098  00000+0  22713-3 0  9990
2 56075  87.8991 263.2833 0002021 109.5827 250.5522 13.15546882153723
ONEWEB-0635             
1 56076U 23043AG  26147.83684534  .00000091  00000+0  20882-3 0  9999
2 56076  87.8998 263.2446 0002132  95.3230 264.8144 13.15548928153758
ONEWEB-0636             
1 56077U 23043AH  26147.75286323 -.00000009  00000+0 -58870-4 0  9995
2 56077  87.8992 263.2692 0002066  95.8726 264.2639 13.15547561153729
ONEWEB-0637             
1 56078U 23043AJ  26147.74652378 -.00000051  00000+0 -17011-3 0  9990
2 56078  87.8991 263.2876 0002215 103.2236 256.9142 13.15547608153740
ONEWEB-0647             
1 56079U 23043AK  26147.74177007 -.00000126  00000+0 -37003-3 0  9998
2 56079  87.8989 263.3009 0001873  95.1922 264.9422 13.15547313153739
ONEWEB-0651             
1 56080U 23043AL  26147.81307126 -.00000032  00000+0 -11975-3 0  9991
2 56080  87.8990 263.2805 0002168  98.9768 261.1608 13.15547786154946
ONEWEB-0718             
1 56081U 23043AM  26147.80832005 -.00000148  00000+0 -42767-3 0  9991
2 56081  87.8991 263.2618 0001911 116.6302 243.5024 13.15550300153757
ONEWEB-0561             
1 56710U 23068A   26147.81907839 -.00000015  00000+0 -68614-4 0  9999
2 56710  87.9178 278.5036 0002006  86.6229 273.5134 13.20769832146819
ONEWEB-0668             
1 56711U 23068B   26147.75773777  .00000021  00000+0  20032-4 0  9992
2 56711  87.9109 232.8282 0002332 111.3038 248.8342 13.16592863149098
ONEWEB-0676             
1 56712U 23068C   26147.76566132  .00000069  00000+0  14762-3 0  9993
2 56712  87.9107 232.8326 0002248  94.0374 266.1014 13.16595356149013
ONEWEB-0677             
1 56713U 23068D   26147.80729929 -.00000061  00000+0 -18198-3 0  9995
2 56713  87.9178 278.4977 0002299  99.2768 260.8626 13.20772342147116
ONEWEB-0678             
1 56714U 23068E   26147.85267601  .00000151  00000+0  36789-3 0  9999
2 56714  87.9001 263.2435 0001700  92.7761 267.3564 13.15546803146612
ONEWEB-0679             
1 56715U 23068F   26147.80048862 -.00000103  00000+0 -30388-3 0  9999
2 56715  87.9108 232.8170 0002595 104.1965 255.9455 13.16593032149045
ONEWEB-0680             
1 56716U 23068G   26147.80926575  .00000144  00000+0  31669-3 0  9992
2 56716  87.9262 248.0240 0002469 110.9737 249.1661 13.21825189148406
ONEWEB-0681             
1 56717U 23068H   26147.78991218 -.00000006  00000+0 -46657-4 0  9999
2 56717  87.9258 248.0300 0002678  83.6346 276.5092 13.21825165148397
ONEWEB-0682             
1 56718U 23068J   26147.80039529 -.00000110  00000+0 -32669-3 0  9994
2 56718  87.9000 263.2549 0002299 110.5820 249.5557 13.15547695146771
ONEWEB-0683             
1 56719U 23068K   26147.74810979 -.00000077  00000+0 -23795-3 0  9996
2 56719  87.9002 263.2642 0002020 108.2948 251.8402 13.15547305146734
ONEWEB-0684             
1 56720U 23068L   26147.75601986  .00000066  00000+0  14141-3 0  9996
2 56720  87.8998 263.2535 0000577  86.0098 274.1098 13.15547096146561
ONEWEB-0686             
1 56721U 23068M   26147.76091280  .00000058  00000+0  11809-3 0  9997
2 56721  87.9096 232.8505 0001877 109.9521 250.1812 13.16593163149020
ONEWEB-0694             
1 56722U 23068N   26147.76724541  .00000113  00000+0  26138-3 0  9994
2 56722  87.9118 232.8096 0002328 109.9671 250.1711 13.16594079149080
ONEWEB-0696             
1 56723U 23068P   26147.78931068  .00000458  00000+0  11816-2 0  9999
2 56723  87.8986 263.2865 0001437  91.6427 268.4868 13.15545349146684
ONEWEB-0703             
1 56724U 23068Q   26147.79880728 -.00000095  00000+0 -28545-3 0  9994
2 56724  87.8993 263.2655 0001791  73.9696 286.1631 13.15547390146575
ONEWEB-0721             
1 56725U 23068R   26147.86322697  .00000068  00000+0  12936-3 0  9994
2 56725  86.6758  92.0021 0001971  80.0598 280.0758 13.22468087155258
ONEWEB-0015             
1 61594U 24188A   26147.70933770  .00000182  00000+0  47781-3 0  9994
2 61594  87.8908  25.1678 0002356  83.3573 276.7823 13.11418146 81779
ONEWEB-0687             
1 61595U 24188B   26147.65208241  .00000042  00000+0  75787-4 0  9990
2 61595  87.9144   9.9619 0002181  95.7185 264.4195 13.17650228 83199
ONEWEB-0688             
1 61596U 24188C   26147.60482453  .00000033  00000+0  52848-4 0  9998
2 61596  87.9146   9.9709 0003070  84.1436 276.0046 13.17651578 83183
ONEWEB-0689             
1 61597U 24188D   26147.66695139  .00000053  00000+0  11453-3 0  9990
2 61597  87.8926  25.1312 0001777  92.5706 267.5626 13.11415217 81767
ONEWEB-0690             
1 61598U 24188E   26147.67712448 -.00000355  00000+0 -10377-2 0  9995
2 61598  87.8915  25.1424 0001803  61.0566 299.0742 13.11416211 81949
ONEWEB-0691             
1 61599U 24188F   26147.67203010 -.00000173  00000+0 -52367-3 0  9990
2 61599  87.8923  25.0501 0002170  85.5893 274.5482 13.11413480 81793
ONEWEB-0692             
1 61600U 24188G   26147.69237514 -.00000458  00000+0 -13278-2 0  9994
2 61600  87.8906  25.1630 0001123  99.2366 260.8889 13.11417774 81783
ONEWEB-0693             
1 61601U 24188H   26147.61664220  .00000048  00000+0  91090-4 0  9998
2 61601  87.9142   9.9895 0002051  61.3627 298.7710 13.17650832 83179
ONEWEB-0695             
1 61602U 24188J   26147.66863538 -.00000013  00000+0 -73817-4 0  9998
2 61602  87.8904  25.1599 0001533  98.3564 261.7738 13.11413835 81778
ONEWEB-0697             
1 61603U 24188K   26147.70085654 -.00000147  00000+0 -45124-3 0  9996
2 61603  87.8909  25.1434 0001089  93.2632 266.8620 13.11418457 81768
ONEWEB-0698             
1 61604U 24188L   26147.67880837 -.00000380  00000+0 -11086-2 0  9997
2 61604  87.8903  25.1625 0000994  44.5200 315.6008 13.11415905 81789
ONEWEB-0699             
1 61605U 24188M   26147.67534841  .00000309  00000+0  84849-3 0  9996
2 61605  87.8854  40.3496 0001149  83.3189 276.8069 13.10376611 80626
ONEWEB-0700             
1 61606U 24188N   26147.67700903  .00000421  00000+0  11686-2 0  9994
2 61606  87.8874  40.2545 0001341  99.7829 260.3450 13.10376659 80612
ONEWEB-0701             
1 61607U 24188P   26147.76997411  .00000677  00000+0  19020-2 0  9990
2 61607  87.8855  40.3295 0000998  86.2006 273.9235 13.10372754 80635
ONEWEB-0702             
1 61608U 24188Q   26147.72461270  .00000623  00000+0  17211-2 0  9997
2 61608  87.8924  25.0553 0001064 111.5316 248.5925 13.11416669 81800
ONEWEB-0704             
1 61609U 24188R   26147.68200167  .00000541  00000+0  15146-2 0  9993
2 61609  87.8873  40.3350 0001251 116.4582 243.6674 13.10375683 80609
ONEWEB-0705             
1 61610U 24188S   26147.76332587  .00000690  00000+0  19394-2 0  9990
2 61610  87.8861  40.3245 0002140 111.2476 248.8880 13.10376096 72789
ONEWEB-0706             
1 61611U 24188T   26147.74838122  .00000154  00000+0  40605-3 0  9990
2 61611  87.8859  40.3340 0001528  98.7324 261.3976 13.10377422 80704
